{"type":"FeatureCollection","name":"Source-traced Kurort courses","features":[{"type":"Feature","id":"gifu_gifucity_gifu01_city_shimizugawa","properties":{"course_id":"gifu_gifucity_gifu01_city_shimizugawa","name":"金 こがね 公園・岐阜駅・清水川コース","source_url":"http://kurortwalking.com/file/gifu-gifucity/gifu01_city_shimizugawa.pdf","source_page":1,"published_distance_km":4.32,"source_distance_approximate":false,"alignment_method":"two_landmarks","status":"approximate_source_trace","verified_for_navigation":false,"linework_length_km":5.938,"control_points":[{"name":"岐阜駅","pixel":[538,1106],"coordinate":[136.7569769,35.4094858],"source":"https://www.openstreetmap.org/node/4079317249"},{"name":"金公園","pixel":[523,550],"coordinate":[136.757567,35.4158501],"source":"https://www.openstreetmap.org/way/492783880"}],"independent_checks":[],"source_scale":null,"distance_note":"Printed distance is the walking distance. Linework length may differ because out-and-back segments, source-map generalization and small extraction gaps are not a measured GPS track."},"geometry":{"type":"MultiLineString","coordinates":[[[136.7594197,35.4047922],[136.7594514,35.4048568]],[[136.7574066,35.407605],[136.7572913,35.4076243],[136.7571012,35.4076115],[136.7569903,35.4075727],[136.7569469,35.4075091]],[[136.7571355,35.4097524],[136.7564433,35.4098682],[136.7563907,35.4098246],[136.7561856,35.4095054],[136.755948,35.409583],[136.755864,35.4095708],[136.7557471,35.4094845],[136.7556813,35.4093362],[136.755712,35.4091125],[136.7557966,35.408942],[136.7559429,35.4087951],[136.7560744,35.4087168],[136.7563807,35.4086237],[136.7566243,35.4085937],[136.7575982,35.4083773]],[[136.7588815,35.4183734],[136.7588407,35.41805],[136.7587463,35.4163659],[136.7587058,35.4161386],[136.7577207,35.4124336],[136.7571967,35.4106125],[136.7571895,35.4105554],[136.7572104,35.4105345],[136.7574038,35.4104798],[136.7573365,35.4102258],[136.7572686,35.4101547],[136.7571599,35.40976]],[[136.7594759,35.4048644],[136.7595748,35.404808],[136.7597642,35.4046286],[136.7597346,35.4044869],[136.7597949,35.404405],[136.7600668,35.4041322],[136.7604713,35.4037905],[136.7606045,35.403539],[136.7609089,35.4032443],[136.7610744,35.4028747],[136.7613012,35.4027114],[136.761547,35.4023254],[136.7622784,35.4017737],[136.7627194,35.4015348],[136.762766,35.4015309],[136.7628937,35.4017028],[136.7629162,35.4017874],[136.7626102,35.4019766],[136.7623505,35.4020657],[136.7620401,35.4023129],[136.7619878,35.4023653],[136.761952,35.4024548],[136.7618173,35.4026008],[136.7613455,35.4030634],[136.7612401,35.4032549],[136.7611042,35.4033913],[136.7608657,35.4035555],[136.7607716,35.40365],[136.7607265,35.4037595],[136.7606058,35.4039234],[136.7599821,35.4045815],[136.7599205,35.404654],[136.7599334,35.4046625]],[[136.7587999,35.4183803],[136.7587619,35.418172],[136.7587333,35.4176649],[136.7579476,35.4176924],[136.7577692,35.4176786],[136.7576712,35.4176484],[136.7575297,35.4175545],[136.7574547,35.4174262],[136.7574624,35.4173006],[136.7575786,35.4171947],[136.7577125,35.4171353],[136.758026,35.4170994],[136.7586835,35.4170826],[136.7587008,35.4170331],[136.7586542,35.4163833],[136.758609,35.4161179],[136.7577755,35.4161399],[136.7577253,35.4161152],[136.7572073,35.4126593],[136.7570896,35.4126596],[136.7559862,35.4128773],[136.7559501,35.4128707],[136.7559205,35.412729],[136.7548975,35.4129303],[136.7548147,35.4129276],[136.7545706,35.411458],[136.754426,35.410778],[136.7544469,35.410757],[136.7552054,35.4106067],[136.7552263,35.4105858],[136.7552143,35.4104906],[136.7550022,35.4098355],[136.7550128,35.4095462],[136.7548835,35.4095475],[136.754492,35.4096188],[136.7530695,35.4099209],[136.7530426,35.4098943],[136.7530282,35.4097802],[136.7531154,35.4097248],[136.75314,35.4097323]],[[136.7584796,35.4060248],[136.7587576,35.4061745],[136.75878,35.4062591],[136.7585729,35.4063919],[136.7585162,35.4065024],[136.7583361,35.4066617],[136.7582229,35.4069789],[136.758093,35.4071628],[136.7579101,35.407207],[136.7571899,35.4072868],[136.7570154,35.4073976]],[[136.7571704,35.4097495],[136.7576411,35.4096523],[136.7576922,35.4095903],[136.7576649,35.4094676],[136.7576135,35.4094335],[136.7571859,35.4094983],[136.7571461,35.4094631],[136.7570878,35.409468],[136.7571459,35.4097419]],[[136.7584426,35.419564],[136.7590021,35.419517],[136.7590346,35.419495],[136.7588839,35.4183925]],[[136.7584318,35.4194783],[136.7588864,35.4194402],[136.7589306,35.4194172],[136.7588023,35.4183993]],[[136.7568839,35.4074759],[136.7568176,35.4075103],[136.7567041,35.4077313],[136.7556438,35.4079165],[136.7555389,35.4079253],[136.755428,35.4078866],[136.7550341,35.4079389],[136.7549247,35.4080058],[136.7548527,35.4080887],[136.7546943,35.4081405],[136.7527827,35.4085799]],[[136.7594464,35.4050976],[136.7594398,35.4052327],[136.759235,35.4056633],[136.7591919,35.4056958],[136.7591116,35.4057121],[136.7588678,35.406021],[136.7588777,35.4061932],[136.7591232,35.4063649],[136.7591633,35.4064961],[136.7591113,35.4066447],[136.7588864,35.4070097],[136.758359,35.4072174],[136.7572111,35.4073619],[136.757068,35.4074412]],[[136.759408,35.4047932],[136.7593638,35.4048161],[136.7592572,35.4049981],[136.758686,35.4056998],[136.7584772,35.4060058]]]}},{"type":"Feature","id":"gifu_gifucity_gifu01_city_bairin","properties":{"course_id":"gifu_gifucity_gifu01_city_bairin","name":"柳ケ瀬 やながせ ・ 粕森 かしもり 公園・ 梅林 ばいりん 公園コース","source_url":"http://kurortwalking.com/file/gifu-gifucity/gifu01_city_bairin.pdf","source_page":1,"published_distance_km":4.02,"source_distance_approximate":false,"alignment_method":"landmark_scale_north","status":"approximate_source_trace","verified_for_navigation":false,"linework_length_km":4.183,"control_points":[{"name":"梅林公園","pixel":[2260,706],"coordinate":[136.7709837,35.4182073],"source":"https://www.openstreetmap.org/way/492775743"}],"independent_checks":[],"source_scale":{"pixels":140,"meters":100,"north":"page_up"},"distance_note":"Printed distance is the walking distance. Linework length may differ because out-and-back segments, source-map generalization and small extraction gaps are not a measured GPS track."},"geometry":{"type":"MultiLineString","coordinates":[[[136.757173,35.4203819],[136.7572321,35.420398],[136.7577505,35.4204462],[136.7577702,35.4209338],[136.7578818,35.4215019]],[[136.7665314,35.4201837],[136.7659079,35.4203123]],[[136.7665445,35.4201837],[136.7666692,35.4201569]],[[136.7649432,35.4208213],[136.7649235,35.4208052],[136.7649104,35.420757],[136.7648973,35.4207463],[136.7648513,35.4207463],[136.763926,35.4209124],[136.7635716,35.4209981],[136.763565,35.4209714],[136.7636503,35.4207195],[136.7636503,35.4206874]],[[136.7658423,35.420682],[136.7657701,35.4207034]],[[136.771204,35.4202212],[136.7712827,35.4201729],[136.7714009,35.4201247],[136.7714796,35.4201086],[136.7715912,35.4201086],[136.7716699,35.4201354],[136.771729,35.4201837],[136.7717618,35.4202426],[136.7717618,35.4203176],[136.7717159,35.4204087],[136.7716371,35.4204944],[136.771519,35.4205641],[136.7714009,35.4206016],[136.7712762,35.4207195],[136.7712499,35.4207624],[136.7712368,35.4208052],[136.7712499,35.4208856],[136.7713024,35.4209338],[136.7713549,35.4209553],[136.7712565,35.421116],[136.7712434,35.4211643],[136.7711974,35.421668],[136.770994,35.421684],[136.7708759,35.4217108],[136.7708299,35.4217055],[136.7708102,35.4216894],[136.770738,35.4215286],[136.7707315,35.4214858],[136.7707512,35.4214375],[136.770889,35.4213357],[136.7709415,35.4212768],[136.7710268,35.421116],[136.7710268,35.4210571],[136.7710071,35.421041],[136.7709612,35.4210303],[136.7708496,35.4210303],[136.7708234,35.4210249],[136.7708102,35.4210089],[136.7707774,35.4208803],[136.7708759,35.4207838],[136.7708759,35.4207463],[136.7708562,35.4207356],[136.770574,35.4207088],[136.7703443,35.4206713],[136.7702524,35.4206231],[136.7701343,35.4205266],[136.7700096,35.4204891],[136.7698324,35.4204784],[136.7694583,35.4202855]],[[136.7658554,35.4203069],[136.7658488,35.4202855],[136.765862,35.4202747],[136.7665248,35.4201515]],[[136.7667086,35.4201569],[136.7669251,35.4206552]],[[136.7571205,35.4195781],[136.7565495,35.4195781]],[[136.7578752,35.4215126],[136.7578161,35.4215126],[136.7573764,35.4215769],[136.7573568,35.4215662],[136.7571271,35.4204033]],[[136.7690318,35.4205212],[136.7687955,35.420548]],[[136.7666626,35.4201247],[136.7665314,35.4201515]],[[136.7669645,35.4206498],[136.7667611,35.4201247],[136.7667479,35.4201086],[136.7666954,35.4201194]],[[136.769478,35.4202587],[136.7696093,35.4203069],[136.7697077,35.4202533],[136.7697799,35.4202533],[136.7698455,35.4202855],[136.7698849,35.4202855],[136.7699636,35.4202319],[136.7701408,35.4202158],[136.7701933,35.4204087],[136.7702065,35.4204248],[136.7702393,35.4204248],[136.7703574,35.420323],[136.7707052,35.4203337],[136.7707183,35.4203176],[136.7707315,35.4201461],[136.7708496,35.4201033],[136.7709415,35.4200551],[136.7710071,35.420039],[136.7710662,35.420039],[136.7710859,35.4200551],[136.7711777,35.4202104],[136.7711974,35.4202212]],[[136.7687955,35.4205802],[136.7677192,35.4207034],[136.7669579,35.4207195],[136.7669382,35.420682]],[[136.7634732,35.4207142],[136.7635257,35.4207034]],[[136.7658554,35.4207142],[136.7657832,35.4207356]],[[136.7688086,35.4205802],[136.7690383,35.4205534]],[[136.7659145,35.4203444],[136.7660457,35.4205963],[136.7660523,35.4206391],[136.765862,35.4207088]],[[136.7635716,35.4207356],[136.7635782,35.4207785],[136.7634207,35.4212553],[136.7634075,35.4213304],[136.7635979,35.4214965],[136.7636044,35.4215233],[136.7636241,35.421534],[136.7636503,35.4215233],[136.7636503,35.4214911],[136.76367,35.4214751],[136.7637816,35.4214268],[136.7638407,35.4214268],[136.7638932,35.4214536],[136.7639326,35.4214536],[136.7639391,35.4213625],[136.763985,35.4213197],[136.7640769,35.4213197],[136.7643001,35.4213679],[136.764346,35.4213625],[136.7643722,35.4213464],[136.7643722,35.4213143],[136.7643263,35.4212607],[136.7642541,35.4212661],[136.7642147,35.4212446],[136.7641294,35.42125],[136.7640704,35.4212339]],[[136.756543,35.4195353],[136.7570811,35.4195353],[136.7571008,35.4195192],[136.7571139,35.4194656],[136.7571205,35.419128],[136.7571271,35.4181528],[136.756543,35.4181421],[136.7563855,35.4181099],[136.756287,35.4180617],[136.7562083,35.4179867],[136.7561689,35.4178902],[136.7561755,35.4177884],[136.7561952,35.4177455],[136.7562542,35.417692],[136.7563527,35.4176437],[136.7564445,35.4176223],[136.7565561,35.4176169],[136.7571402,35.4176384],[136.7572058,35.4176491],[136.7572058,35.4177777],[136.757173,35.4183511],[136.7571664,35.4194495],[136.7571336,35.4195728]],[[136.7669776,35.4206659],[136.7669908,35.4206766],[136.7676995,35.4206659],[136.7687889,35.420548]],[[136.7571402,35.420248],[136.7571861,35.4196264],[136.7571861,35.4195889],[136.757173,35.4195781],[136.7571402,35.4195781]],[[136.7690514,35.4205534],[136.7691696,35.4205373],[136.7691696,35.4204784],[136.7691302,35.4202855],[136.7691893,35.4202694],[136.7693796,35.4202694]],[[136.7658488,35.4206766],[136.7659867,35.4206177],[136.7659867,35.4205855],[136.7658817,35.4203605]],[[136.7570942,35.420248],[136.7571271,35.4195835]],[[136.7578883,35.4215019],[136.7594437,35.4212875],[136.7619638,35.4209767]],[[136.7636438,35.420682],[136.763565,35.4206981]],[[136.7640704,35.4212232],[136.7640835,35.4212071],[136.7641754,35.4211964],[136.7642344,35.4211589],[136.7643066,35.4211696],[136.7643526,35.4211696],[136.7643657,35.4211589],[136.7643657,35.4211321],[136.7642869,35.4210892],[136.7641754,35.4210839],[136.7641097,35.4211053],[136.7640966,35.4210946],[136.7641032,35.4210624],[136.7641754,35.4210089],[136.7642344,35.4210089],[136.7642607,35.4210196],[136.764346,35.4210142],[136.7644116,35.4210517],[136.7644641,35.4210624],[136.7645035,35.4211107],[136.7646019,35.4211107],[136.7646544,35.4211482],[136.7646741,35.4211375],[136.7647201,35.4210678],[136.7648448,35.4209553],[136.7648776,35.4209017],[136.7649498,35.4208588]],[[136.7635322,35.4207356],[136.7634863,35.4207463]],[[136.7619703,35.4210089],[136.7594765,35.421325],[136.7579277,35.4215447],[136.7579014,35.4215447],[136.7578818,35.4215126]],[[136.7690383,35.4205212],[136.7691105,35.4205052],[136.7691105,35.4204462],[136.7690711,35.4202587],[136.7690842,35.420248],[136.7692352,35.4202265],[136.7693927,35.4202372]]]}},{"type":"Feature","id":"aichi_nagoya_aichi_nagoya_nakaku","properties":{"course_id":"aichi_nagoya_aichi_nagoya_nakaku","name":"久屋大通 ひさやおおどおり パークコース 〜水の宇宙船からGO！〜","source_url":"http://kurortwalking.com/file/aichi-nagoya/aichi-nagoya_nakaku.pdf","source_page":1,"published_distance_km":2.77,"source_distance_approximate":false,"alignment_method":"two_landmarks","status":"approximate_source_trace","verified_for_navigation":false,"linework_length_km":2.252,"control_points":[{"name":"名古屋テレビ塔","pixel":[287,1142],"coordinate":[136.9083338,35.1722972],"source":"https://www.openstreetmap.org/way/51778897"},{"name":"オアシス21","pixel":[454,1397],"coordinate":[136.9095277,35.1708482],"source":"https://www.openstreetmap.org/node/12003232069"}],"independent_checks":[],"source_scale":null,"distance_note":"Printed distance is the walking distance. Linework length may differ because out-and-back segments, source-map generalization and small extraction gaps are not a measured GPS track."},"geometry":{"type":"MultiLineString","coordinates":[[[136.908282,35.1749185],[136.9082857,35.1749535],[136.9083066,35.1749782],[136.9082988,35.1751879],[136.9082423,35.1752502],[136.9082309,35.1756768],[136.907949,35.1756806],[136.9079513,35.1757995],[136.9079597,35.1758066],[136.9080322,35.1758109],[136.9080875,35.1758255],[136.9081468,35.1758542],[136.9081887,35.1759001],[136.9081726,35.1766099],[136.9081847,35.1766485],[136.9082143,35.1766663],[136.9082528,35.1766632],[136.9082832,35.1766286],[136.9083115,35.175961],[136.9083209,35.1759086],[136.9083384,35.1758808],[136.9083816,35.1758498],[136.9084332,35.1758294],[136.9085059,35.1758197],[136.9085189,35.1758094],[136.9085167,35.175687],[136.9083076,35.1756846],[136.9082949,35.175674],[136.9082978,35.1755027],[136.9084558,35.1754974],[136.9085684,35.1754043],[136.9085742,35.1753134],[136.9085751,35.1752575],[136.9085204,35.1752114],[136.9085198,35.1749911],[136.90844,35.1749167],[136.9083162,35.1749153]],[[136.9082778,35.1749114],[136.9082847,35.1744988],[136.9081611,35.1744904],[136.9081484,35.1744798],[136.9081466,35.1743329],[136.9081553,35.174326],[136.9082834,35.1743239],[136.9082928,35.1742681],[136.9085319,35.1742673],[136.9085606,35.1733198],[136.9085522,35.1733127],[136.9083089,35.17331],[136.9082962,35.1732994],[136.9083065,35.1726875],[136.9082214,35.172669],[136.9081835,35.1726406],[136.9081673,35.1725845],[136.9081693,35.1724656],[136.9080883,35.1724577],[136.9080799,35.1724506],[136.9080872,35.1720171],[136.9081175,35.1719894],[136.9081261,35.1717342],[136.9081391,35.1717204],[136.9082035,35.1716966],[136.9082339,35.1716655],[136.9082517,35.1708613],[136.9082135,35.1708434],[136.9082186,35.1705392],[136.9082273,35.1705323],[136.9085858,35.1705363]],[[136.908312,35.1749118],[136.9083254,35.1748735],[136.9083221,35.1743034],[136.9085697,35.1743062],[136.9085783,35.1742993],[136.9085953,35.1732888],[136.9085826,35.1732816],[136.9083734,35.1732793],[136.908365,35.1732722],[136.9083875,35.1726919],[136.908439,35.172675],[136.9084693,35.1726508],[136.9085045,35.1725883],[136.9085143,35.172515],[136.9085359,35.1724977],[136.9085832,35.1724808],[136.9086,35.171729],[136.9086727,35.1717229],[136.9087071,35.1717093],[136.9087375,35.1716746],[136.9087514,35.1716083],[136.9091568,35.1716199],[136.9091954,35.1716098],[136.909217,35.1715926],[136.9092434,35.1715439],[136.9101099,35.1715501],[136.9101209,35.1711516],[136.9097966,35.1711444],[136.9097881,35.1711373],[136.9097886,35.1711094],[136.9098199,35.170767],[136.9101402,35.1707636],[136.9101488,35.1707567],[136.9101572,35.1702567],[136.9101488,35.1702496],[136.9094019,35.1702412],[136.9093892,35.1704894],[136.9094055,35.1705315],[136.9094352,35.1705459],[136.9094523,35.1705425],[136.9095137,35.1704453],[136.909592,35.1703553],[136.9096612,35.1703071],[136.9096912,35.1702969],[136.9097296,35.1702974],[136.9097676,35.1703258],[136.9097922,35.1703855],[136.9097995,35.170459],[136.9097881,35.1706268]],[[136.9092772,35.1713135],[136.909281,35.1713415]],[[136.9088611,35.1691335],[136.9088692,35.1691616]],[[136.9097197,35.1708918],[136.9097328,35.1708709]],[[136.9092603,35.1710475],[136.909265,35.1710231]],[[136.9092531,35.1712223],[136.909245,35.1711977]],[[136.908857,35.1696371],[136.908849,35.1696055]],[[136.9088487,35.1698748],[136.9088404,35.1698642],[136.9088449,35.1698503]],[[136.908831,35.1701684],[136.9088272,35.1701438]],[[136.9092509,35.1700752],[136.9092423,35.1700821],[136.9092463,35.1700996]],[[136.9092359,35.1704632],[136.9092446,35.1704528],[136.9092364,35.1704317]],[[136.9090071,35.169338],[136.909011,35.1693625]],[[136.9092764,35.1708483],[136.9092803,35.1708729]],[[136.9090215,35.1692472],[136.9090091,35.1692191]],[[136.9090255,35.169006],[136.9090174,35.1689814]],[[136.9086242,35.1705368],[136.9086541,35.1705371]],[[136.9088292,35.170025],[136.9088415,35.1700531]],[[136.9097694,35.1707245],[136.9097698,35.1707]],[[136.9089154,35.168697],[136.9088686,35.1686895]],[[136.9096171,35.1711529],[136.9095999,35.1711632],[136.9096038,35.1711842]],[[136.90901,35.169422],[136.9090061,35.1693974]],[[136.9088285,35.1703187],[136.9088324,35.1703432],[136.9088408,35.1703468]],[[136.9088765,35.1687245],[136.908872,35.1687385],[136.9088804,35.168749]],[[136.908818,35.1704375],[136.9088092,35.1704514],[136.9088132,35.1704689]],[[136.9092387,35.1700435],[136.9092305,35.1700225],[136.9092177,35.1700188]],[[136.9092414,35.170138],[136.9092367,35.1701624]],[[136.9094426,35.1713748],[136.9094643,35.1713575],[136.9094771,35.1713577]],[[136.9090164,35.1690373],[136.9090244,35.1690689]],[[136.9092619,35.1706943],[136.9092623,35.1706733],[136.9092538,35.1706697]],[[136.9088497,35.1698154],[136.9088417,35.1697873]],[[136.9097515,35.1707767],[136.9097519,35.1707522]],[[136.908832,35.1701089],[136.9088282,35.1700844]],[[136.9090163,35.1693031],[136.9090081,35.1692786]],[[136.9088794,35.1688085],[136.9088671,35.1687804]],[[136.9092878,35.1709359],[136.9092797,35.1709078]],[[136.9090225,35.1691878],[136.9090141,35.1691772],[136.9090186,35.1691633]],[[136.9086969,35.1705306],[136.9087184,35.1705238],[136.9087354,35.1705275]],[[136.909538,35.1712919],[136.909534,35.1712744],[136.9095556,35.1712606]],[[136.909032,35.1698908],[136.9090195,35.1698732],[136.9090239,35.1698663]],[[136.9096219,35.1711215],[136.9096437,35.1710973]],[[136.9090154,35.1690968],[136.9090235,35.1691284]],[[136.90924,35.1702184],[136.9092319,35.1701938]],[[136.9092699,35.1707259],[136.9092695,35.1707503]],[[136.909693,35.1709544],[136.9097062,35.1709301]],[[136.9092465,35.1703409],[136.9092342,35.1703128]],[[136.9090991,35.169965],[136.909112,35.1699617],[136.9091372,35.1699829]],[[136.909239,35.1702779],[136.9092352,35.1702498]],[[136.9088356,35.1704062],[136.9088275,35.1703817]],[[136.9092629,35.1706348],[136.9092505,35.1706102]],[[136.9089581,35.168694],[136.908988,35.1686978]],[[136.908848,35.169665],[136.908856,35.1696965]],[[136.9092782,35.1709952],[136.9092698,35.1709881],[136.9092703,35.1709602]],[[136.9090133,35.1694815],[136.9090052,35.1694534]],[[136.9092554,35.1705718],[136.9092473,35.1705472]],[[136.9097509,35.1708117],[136.9097423,35.1708151],[136.9097377,35.170836]],[[136.9088354,35.1699061],[136.9088393,35.1699307]],[[136.9096707,35.1710101],[136.9096797,35.1709857]],[[136.9088538,35.1695741],[136.9088499,35.1695496]],[[136.9088345,35.1699621],[136.9088425,35.1699936]],[[136.908995,35.16981],[136.9089989,35.169831],[136.9090158,35.1698382]],[[136.9088702,35.1691022],[136.9088621,35.1690741]],[[136.909374,35.171395],[136.9094082,35.1713954]],[[136.9092375,35.1703688],[136.9092413,35.1703933]]]}},{"type":"Feature","id":"aichi_aichi01","properties":{"course_id":"aichi_aichi01","name":"岡崎城跡周遊コース","source_url":"http://kurortwalking.com/file/aichi/aichi01.pdf","source_page":1,"published_distance_km":1.92,"source_distance_approximate":false,"alignment_method":"two_landmarks","status":"approximate_source_trace","verified_for_navigation":false,"linework_length_km":2.071,"control_points":[{"name":"岡崎市図書館交流プラザ・りぶら","pixel":[592,226],"coordinate":[137.1592936,34.9595903],"source":"https://www.openstreetmap.org/way/229252897"},{"name":"岡崎城","pixel":[494,964],"coordinate":[137.158807,34.9563236],"source":"https://www.openstreetmap.org/way/231295714"}],"independent_checks":[],"source_scale":null,"distance_note":"Printed distance is the walking distance. Linework length may differ because out-and-back segments, source-map generalization and small extraction gaps are not a measured GPS track."},"geometry":{"type":"MultiLineString","coordinates":[[[137.1593531,34.9559556],[137.1593207,34.9559554]],[[137.1594189,34.955883],[137.1594312,34.9558698],[137.1594316,34.9558365],[137.1592687,34.955579],[137.159269,34.9555557],[137.1593972,34.9553505],[137.1593976,34.9553173],[137.1593337,34.9552402],[137.1593261,34.9552035],[137.1594089,34.9550645],[137.1595363,34.9546032],[137.159606,34.9545405]],[[137.1599955,34.9541846],[137.1600815,34.9541121],[137.1600937,34.9541089]],[[137.1596414,34.9565569],[137.1596903,34.9565374],[137.1598864,34.9564093],[137.1600006,34.9563537],[137.1602234,34.9563556],[137.1603124,34.9563696],[137.1604174,34.9564038]],[[137.1600978,34.9541056],[137.1601551,34.9540562],[137.1601795,34.954053],[137.1601915,34.9540631],[137.1601912,34.9540897],[137.1601258,34.9541358]],[[137.1593087,34.9559386],[137.1593292,34.9559255],[137.1593494,34.9559257]],[[137.1598891,34.9542668],[137.1599792,34.9541911],[137.1599914,34.9541878]],[[137.1585771,34.955786],[137.1585645,34.9558192]],[[137.1604173,34.9564071],[137.1604088,34.9564403],[137.16021,34.956778],[137.1602469,34.9570644],[137.1602786,34.9571279],[137.1602774,34.957221],[137.1602611,34.9572309],[137.1601636,34.95725],[137.1600803,34.9574256],[137.1600479,34.9574253],[137.1599591,34.9573946],[137.1599227,34.957391],[137.1598572,34.957437],[137.1597761,34.9574463],[137.1597302,34.9575524],[137.1597096,34.9575788],[137.1596691,34.9575752],[137.1591155,34.9574407],[137.1590077,34.9573167],[137.1588204,34.9570623],[137.1588004,34.9570455],[137.1585205,34.9570597],[137.1584921,34.9570628],[137.1584798,34.9570727],[137.1585018,34.9572592],[137.158501,34.9573224],[137.1584888,34.9573289],[137.1583753,34.9573313],[137.1583671,34.9573379],[137.1583912,34.9579935],[137.1583465,34.9580031],[137.1581682,34.9580049],[137.15816,34.9580148],[137.1581595,34.9580514],[137.1582269,34.9594559],[137.1582429,34.9594727],[137.1584861,34.9594747],[137.1585021,34.9594882]],[[137.1597827,34.9543491],[137.1597745,34.954349],[137.1596803,34.9544281]],[[137.1598147,34.9543793],[137.1597124,34.9544583]],[[137.1593571,34.9559557],[137.1593691,34.9559691],[137.1594632,34.9562227],[137.1596014,34.95651],[137.1596252,34.9565501],[137.1596373,34.9565569]],[[137.1595739,34.9545103],[137.1591205,34.9547959],[137.1589692,34.9549011],[137.1589284,34.9549207],[137.1588677,34.9549135],[137.1586944,34.9548422],[137.1586579,34.9548386],[137.1585999,34.9549412],[137.1585988,34.955031],[137.1585095,34.9550402],[137.1584974,34.9550335],[137.1584817,34.9549934],[137.1583236,34.9549987],[137.1583115,34.954992],[137.1583042,34.9549254],[137.1582962,34.9549187],[137.1581867,34.9549244],[137.1581744,34.9549343],[137.1582034,34.9552106],[137.1582308,34.9556068],[137.1585731,34.9557793]],[[137.1598188,34.954376],[137.159917,34.9543003]],[[137.159578,34.954507],[137.1596681,34.9544313],[137.1596762,34.9544314]],[[137.1585019,34.9595015],[137.1584856,34.9595146],[137.1584572,34.9595177],[137.158291,34.9595196],[137.1581897,34.9595188],[137.1581737,34.959502],[137.1581038,34.9579677],[137.158112,34.9579578],[137.1583147,34.9579562],[137.158331,34.9579497],[137.1583068,34.9572974],[137.1583191,34.9572842],[137.1584407,34.9572819],[137.1584453,34.9572421],[137.1583029,34.9563193],[137.1583205,34.9562097],[137.1583749,34.9560704],[137.1585359,34.9558389],[137.1585563,34.9558258]],[[137.1597083,34.9544616],[137.1596101,34.9545373]],[[137.1593535,34.9559224],[137.1593499,34.9558857],[137.1593663,34.9558726]],[[137.1585423,34.9595184],[137.1585101,34.9595015]],[[137.1593616,34.9559224],[137.1593942,34.9559127],[137.1594024,34.9558995]],[[137.1600194,34.954218],[137.1599211,34.954297]],[[137.1585644,34.9558258],[137.1586372,34.9558431],[137.1587378,34.9558972],[137.1587862,34.9559142],[137.158936,34.9559288],[137.159171,34.9559308],[137.1591833,34.9559243],[137.1591881,34.9558644],[137.1592003,34.9558579],[137.1592488,34.9558716],[137.1593047,34.9559353]],[[137.1585731,34.9557827],[137.1585607,34.9557992],[137.1585605,34.9558158]],[[137.159885,34.9542701],[137.1598769,34.95427],[137.1597867,34.9543458]],[[137.1585812,34.9557827],[137.1586298,34.9557832],[137.1586868,34.9557637],[137.1587922,34.9557612],[137.1588379,34.9556718],[137.1588543,34.9556586],[137.159143,34.9555812],[137.1592317,34.9556186],[137.1593628,34.955826],[137.1593746,34.955856]],[[137.1593575,34.9559291],[137.1593572,34.9559523]],[[137.1600235,34.9542147],[137.1600357,34.9542115],[137.1601217,34.954139]]]}},{"type":"Feature","id":"aichi_toyohashi_aichi_toyohashi_iwaya","properties":{"course_id":"aichi_toyohashi_aichi_toyohashi_iwaya","name":"四季彩る岩屋緑地コース","source_url":"http://kurortwalking.com/file/aichi-toyohashi/aichi_toyohashi_iwaya.pdf","source_page":1,"published_distance_km":1.47,"source_distance_approximate":false,"alignment_method":"landmark_scale_north","status":"approximate_source_trace","verified_for_navigation":false,"linework_length_km":1.43,"control_points":[{"name":"岩屋観音像","pixel":[214,529],"coordinate":[137.4266334,34.7311602],"source":"https://www.openstreetmap.org/node/4844383997"}],"independent_checks":[],"source_scale":{"pixels":90,"meters":50,"north":"page_up"},"distance_note":"Printed distance is the walking distance. Linework length may differ because out-and-back segments, source-map generalization and small extraction gaps are not a measured GPS track."},"geometry":{"type":"MultiLineString","coordinates":[[[137.4308877,34.729539],[137.4305658,34.7296714],[137.4305042,34.7297065],[137.4304663,34.7297377],[137.4303764,34.7298467],[137.430329,34.7299285],[137.4303006,34.7300104],[137.4303006,34.7301233],[137.4303716,34.7305363],[137.4303906,34.7306103],[137.4304616,34.7307661],[137.4305089,34.7309102],[137.4305326,34.7310388],[137.4305326,34.7310933],[137.4305184,34.7311635],[137.4304711,34.7312648],[137.4302675,34.7315491],[137.4302533,34.7315881],[137.4306321,34.7319543],[137.4308688,34.7322309],[137.4309445,34.7323477],[137.430973,34.732414],[137.4310156,34.7326165],[137.4310014,34.7327646],[137.4309635,34.7328386],[137.4309019,34.7329165],[137.430812,34.7329944],[137.4307741,34.7330139],[137.4307078,34.7330334],[137.4306179,34.7330334],[137.4305421,34.7330139],[137.4304616,34.7329788],[137.430258,34.7328542],[137.4299408,34.7326789],[137.429169,34.7323088],[137.4291501,34.7322932],[137.4291737,34.7322192],[137.429169,34.7321646],[137.4291548,34.7321335],[137.4290791,34.7320439],[137.4290033,34.7319932],[137.4289275,34.731966],[137.4288139,34.7319504],[137.428724,34.7319582],[137.4286435,34.7319815],[137.4286103,34.7319777],[137.4274787,34.7313855],[137.4268632,34.7311752],[137.4267969,34.7311401],[137.4267732,34.7311167],[137.426778,34.7310895],[137.4268016,34.7310661],[137.4269011,34.7310583],[137.4269153,34.7310505],[137.4269153,34.7310271],[137.4269011,34.7310076],[137.4268537,34.7309843],[137.4268206,34.7309492],[137.4268348,34.7308635],[137.4267922,34.73077],[137.4267685,34.7305129],[137.4267354,34.7304116],[137.4267354,34.7303493],[137.4267448,34.730322],[137.4267732,34.7302792],[137.4268206,34.7302441],[137.4269058,34.7301973],[137.4270431,34.7301389],[137.427403,34.7300065],[137.4281605,34.7297571],[137.4287618,34.7295702],[137.4290412,34.7294689],[137.429259,34.7293637],[137.4294578,34.7292468],[137.4297372,34.7289936],[137.4297703,34.7289936],[137.4298887,34.7290715]],[[137.4299455,34.7291806],[137.4299787,34.7292118],[137.4300402,34.7292351],[137.4301538,34.7292351],[137.4302059,34.7292507],[137.4304237,34.7293949],[137.4307694,34.7294299],[137.4308735,34.7295039],[137.4308877,34.7295312]]]}},{"type":"Feature","id":"aichi_toyohashi_aichi_toyohashi_takashi","properties":{"course_id":"aichi_toyohashi_aichi_toyohashi_takashi","name":"松風そよぐ 高師 たかし 緑地コース","source_url":"http://kurortwalking.com/file/aichi-toyohashi/aichi_toyohashi_takashi.pdf","source_page":1,"published_distance_km":2.97,"source_distance_approximate":false,"alignment_method":"two_landmarks","status":"approximate_source_trace","verified_for_navigation":false,"linework_length_km":3.192,"control_points":[{"name":"アイプラザ豊橋","pixel":[170,252],"coordinate":[137.3813503,34.7325494],"source":"https://www.openstreetmap.org/way/453680401"},{"name":"高師駅","pixel":[201,1244],"coordinate":[137.3816125,34.7271062],"source":"https://www.openstreetmap.org/node/265836368"}],"independent_checks":[],"source_scale":null,"distance_note":"Printed distance is the walking distance. Linework length may differ because out-and-back segments, source-map generalization and small extraction gaps are not a measured GPS track."},"geometry":{"type":"MultiLineString","coordinates":[[[137.3820338,34.7316917],[137.3820548,34.7316662],[137.3820912,34.7316664],[137.3822411,34.7317402],[137.3823656,34.7317624],[137.3824643,34.7317631],[137.3825216,34.7317464],[137.3825426,34.7317295],[137.3825534,34.7316867],[137.3825383,34.7316396],[137.3824868,34.7315965],[137.3823988,34.7315659],[137.3822898,34.7315523],[137.3821391,34.7315556],[137.3820609,34.7315764],[137.3819615,34.7316442],[137.3819508,34.7316783]],[[137.3848775,34.7320578],[137.3848777,34.7320322],[137.3847565,34.7316891],[137.3847468,34.7316206],[137.3847532,34.7315052],[137.3847083,34.7313167],[137.3846573,34.7312222],[137.3845957,34.7311534],[137.384565,34.7311018],[137.3845347,34.7310203],[137.3844106,34.7309596]],[[137.3843791,34.7309936],[137.3844875,34.7310585],[137.3845385,34.7311615],[137.3846052,34.7312433],[137.3846613,34.7313463],[137.3846958,34.7315262],[137.3846994,34.7316887],[137.3848307,34.7320618]],[[137.3828526,34.7329207],[137.382816,34.7329376],[137.3826598,34.7329707],[137.3825715,34.7329701],[137.3825352,34.7329613],[137.3824576,34.7329308],[137.3823698,34.7328789],[137.3823028,34.7328228],[137.3822567,34.7327626],[137.3821342,34.7325436],[137.3820277,34.7322862],[137.3820384,34.7322606],[137.3821218,34.732227],[137.3821428,34.73221],[137.3819701,34.7318239],[137.3819705,34.7317768],[137.3820077,34.7316958]],[[137.3828526,34.7329207],[137.3828172,34.7328221],[137.3828337,34.7327324],[137.382756,34.7327104],[137.3826891,34.7326458],[137.3826483,34.7325728],[137.3826131,34.7324614],[137.3824808,34.7321824],[137.3824708,34.7321396]],[[137.3849284,34.7331788],[137.384913,34.7331574],[137.3847734,34.732579],[137.3847581,34.7325532],[137.3847165,34.7325572],[137.3844298,34.732645],[137.3843778,34.7326489],[137.3843623,34.732636],[137.3843269,34.7325459],[137.384296,34.73252],[137.3840534,34.7323601],[137.3840017,34.7323384],[137.3838719,34.7323246],[137.3837472,34.7323238],[137.3836223,34.73234],[137.3834509,34.7323388],[137.3833887,34.7323213],[137.383363,34.7322954],[137.383333,34.7321798],[137.3833606,34.7320174],[137.3833194,34.7319872],[137.3831115,34.73199],[137.3827075,34.7318632],[137.3824482,34.7318101],[137.3821573,34.7318038],[137.3821159,34.7317907],[137.3820798,34.7317605],[137.3820646,34.7317219],[137.3820337,34.731696]],[[137.3818405,34.732302],[137.3820181,34.7322092],[137.3820185,34.7321707],[137.3819127,34.7318406],[137.3819246,34.731691]],[[137.3849388,34.7331789],[137.3849701,34.7331663],[137.3850647,34.73306],[137.385243,34.7328987],[137.3852434,34.7328602],[137.3851937,34.7326332],[137.3851283,34.7324274],[137.3850463,34.7323114],[137.3849436,34.7321994],[137.384856,34.7321261],[137.3848459,34.7320961]],[[137.3819246,34.731691],[137.3818779,34.7316906],[137.3818622,34.7317034],[137.3818514,34.7317375],[137.3818507,34.7318102],[137.3818703,34.7319301],[137.3819457,34.7321787],[137.3819246,34.7322],[137.381815,34.7322548]],[[137.3820077,34.7316958],[137.3819559,34.7316826]],[[137.3824709,34.7321353],[137.3825179,34.7321142],[137.3825958,34.7321148],[137.3826268,34.7321364],[137.3827038,34.7322267],[137.3828171,34.7323259],[137.3829772,34.7324254],[137.3831325,34.7324778],[137.3832674,34.7324958],[137.3833922,34.7324924],[137.3837776,34.7323967],[137.3839441,34.7323807],[137.3839907,34.7323896],[137.3840735,34.7324287],[137.3842643,34.7325669],[137.3843306,34.7326957],[137.384346,34.7327086],[137.384372,34.7327088],[137.3846586,34.7326252],[137.3847159,34.7326171],[137.3848552,34.7332254],[137.3848755,34.7332683],[137.3849065,34.7332899],[137.3849272,34.7332901],[137.3849691,34.7332647],[137.3850637,34.7331541],[137.3852736,34.7329588],[137.3853104,34.7329163],[137.3853107,34.7328821],[137.385256,34.7326379],[137.3852057,34.7324793],[137.38516,34.7323763],[137.385078,34.7322645],[137.3848876,34.7320793]],[[137.3844106,34.7309596],[137.3843791,34.7309893]],[[137.3844106,34.7309596],[137.3842973,34.7308604],[137.3841844,34.7307185],[137.3840669,34.7305295],[137.3839088,34.730229],[137.3838076,34.7299716],[137.3835248,34.7291655],[137.3834594,34.7289598],[137.3834597,34.7289298],[137.3843142,34.7286919],[137.3858407,34.7282919],[137.3858983,34.728258],[137.3859195,34.7282154],[137.3859097,34.7281554],[137.3856097,34.7270028],[137.3855737,34.726964],[137.3855114,34.7269636],[137.3831207,34.7275202],[137.3830273,34.727511],[137.3829962,34.727498],[137.3829138,34.7274247],[137.382831,34.7273985],[137.3827684,34.7274151],[137.382737,34.7274406],[137.3827264,34.7274662],[137.3827308,34.7275432],[137.3828224,34.7277278],[137.3829389,34.7280194],[137.3829329,34.7281049],[137.3828428,34.7282754],[137.3828366,34.7283695],[137.3828566,34.7284466],[137.382958,34.7286997],[137.3830497,34.7288757],[137.3832137,34.7291035],[137.3832908,34.7291853],[137.3834144,34.7292888],[137.383528,34.729358],[137.3837854,34.7301084],[137.3838666,34.7302971],[137.3840709,34.730645],[137.3841732,34.7307997],[137.3842503,34.73089],[137.3843739,34.7309893]],[[137.3848511,34.7320919],[137.3848719,34.732092],[137.3848876,34.7320793]]]}},{"type":"Feature","id":"mie_mie01","properties":{"course_id":"mie_mie01","name":"横山天空コース","source_url":"http://kurortwalking.com/file/mie/mie01.pdf","source_page":1,"published_distance_km":2.08,"source_distance_approximate":false,"alignment_method":"landmark_scale_north","status":"approximate_source_trace","verified_for_navigation":false,"linework_length_km":1.817,"control_points":[{"name":"横山展望台","pixel":[434,424],"coordinate":[136.7990173,34.3318666],"source":"https://www.openstreetmap.org/node/12543833746"}],"independent_checks":[],"source_scale":{"pixels":112,"meters":50,"north":"page_down"},"distance_note":"Printed distance is the walking distance. Linework length may differ because out-and-back segments, source-map generalization and small extraction gaps are not a measured GPS track."},"geometry":{"type":"MultiLineString","coordinates":[[[136.7993101,34.3321059],[136.799321,34.332115],[136.7993137,34.3321905],[136.7994707,34.3324504],[136.7995365,34.3326105],[136.7995365,34.3326467],[136.7994598,34.3329126],[136.7994488,34.332976],[136.7994525,34.3330455],[136.7994671,34.3330908],[136.7994634,34.3333325],[136.7994744,34.333535],[136.7994963,34.3336528],[136.7995511,34.3338582],[136.7996241,34.3339972],[136.79973,34.334254],[136.7997264,34.3342842],[136.7996533,34.3344564],[136.7996241,34.334547],[136.7995146,34.3347374],[136.7994817,34.3348159],[136.7994634,34.3349519],[136.7994634,34.3350546],[136.7994817,34.3351543],[136.7995,34.3353567],[136.7995511,34.3354292],[136.7997483,34.3355319],[136.7998615,34.3355531],[136.799887,34.3355984],[136.7999236,34.3356075],[136.8000696,34.3356044],[136.8001061,34.3356165],[136.8001354,34.3356407],[136.8001719,34.3356921],[136.8002157,34.3358522],[136.800212,34.3358703],[136.8001792,34.3358915],[136.800139,34.3358915],[136.8000514,34.3358612],[136.7999966,34.3358612],[136.7997556,34.3359247],[136.7995584,34.3360063],[136.799332,34.3362026]],[[136.7992699,34.3320425],[136.7992516,34.3320576],[136.7992516,34.3320788]],[[136.7976558,34.3314443],[136.7976705,34.3314504],[136.7976778,34.3314624]],[[136.7980137,34.3316075],[136.7980174,34.3315833]],[[136.7990983,34.3318582],[136.7990727,34.331834]],[[136.7993028,34.3321059],[136.7992918,34.332115],[136.7992516,34.332115],[136.7992443,34.332109],[136.7992516,34.3320818]],[[136.7991567,34.331973],[136.7991859,34.331973]],[[136.7981123,34.3316316],[136.7980868,34.3316286],[136.7980685,34.3316105]],[[136.7992042,34.3320183],[136.7992151,34.3320274],[136.799259,34.3320334]],[[136.7991457,34.3319488],[136.799175,34.3319488]],[[136.7990691,34.331831],[136.7990471,34.3318159]],[[136.7979991,34.3316075],[136.7979809,34.3316075],[136.7979516,34.3315954]],[[136.798587,34.3319337],[136.7986345,34.3319337],[136.7987002,34.3318401],[136.7990143,34.3318673],[136.7990727,34.3318824]],[[136.798587,34.3319337],[136.7985724,34.3320244],[136.7985724,34.3320727],[136.798587,34.3321029],[136.7985943,34.3321573],[136.7986199,34.3322147],[136.7986162,34.3322389],[136.7985615,34.3322933],[136.7985469,34.3323658],[136.798503,34.3323809],[136.7984957,34.3323899],[136.7985067,34.3324383],[136.798503,34.3324806],[136.798441,34.3325501],[136.7984264,34.3326105],[136.7984008,34.3326528],[136.7983497,34.3327132],[136.7981452,34.3328794],[136.7980977,34.3330546],[136.7980612,34.3330878],[136.7980539,34.3331029],[136.7980612,34.3331482],[136.7980575,34.3332087],[136.7980028,34.3332691],[136.7979955,34.3333567],[136.7979626,34.3334081],[136.7979662,34.3335078],[136.7979772,34.3335138],[136.7980283,34.3335047],[136.7981196,34.3334594],[136.7981634,34.3334262],[136.7982,34.3333809],[136.7982401,34.3333114],[136.7983716,34.3331452],[136.7984008,34.3331211],[136.7984191,34.333115],[136.7984337,34.333115],[136.7984483,34.3331392],[136.7984629,34.3332872],[136.7984775,34.3333265],[136.798598,34.3334111],[136.7986747,34.3334866],[136.798682,34.333538],[136.7986345,34.3336709],[136.7986162,34.3337676],[136.7986236,34.3338069],[136.7986528,34.3338673],[136.7987039,34.3339398],[136.7987148,34.33397],[136.7987112,34.3339942],[136.7986564,34.3340365],[136.7984629,34.334115],[136.7984154,34.3341543],[136.7984117,34.3341724],[136.7984665,34.3342056],[136.7984702,34.3342238],[136.7984665,34.3342359],[136.7984337,34.334263],[136.798357,34.3343114],[136.7983533,34.3343325],[136.7983606,34.3343386],[136.7984191,34.3343386],[136.7984264,34.3343567],[136.7983935,34.3344141],[136.798273,34.3345319],[136.7982693,34.3345742],[136.7982766,34.3346498],[136.7982986,34.3347132],[136.7983497,34.3348129],[136.7983789,34.3348401],[136.7984556,34.3348854],[136.7984848,34.3349096],[136.7984921,34.3349277],[136.7984775,34.3350878],[136.7984994,34.335257],[136.7985213,34.3352993],[136.7985651,34.3353476],[136.7985724,34.3353899],[136.7986199,34.3354987],[136.7986309,34.3356044],[136.7987294,34.3358341],[136.7988974,34.3359066],[136.7991494,34.3360032],[136.7991896,34.3360304],[136.7992005,34.3360455],[136.7992042,34.3360757],[136.7991567,34.3361603],[136.7991421,34.3362177],[136.7991457,34.3362389],[136.7991604,34.336254],[136.7992078,34.336254],[136.7992334,34.3362298],[136.7992516,34.3361905]],[[136.799164,34.3320002],[136.799164,34.3320093],[136.7991786,34.3320214]],[[136.7976522,34.3314473],[136.7976486,34.3314745]],[[136.7981196,34.3316014],[136.798116,34.3316286]],[[136.7982036,34.3316105],[136.7981233,34.3315984]],[[136.7982036,34.3316105],[136.7982255,34.3316135],[136.7982401,34.3316346]],[[136.7982036,34.3316105],[136.7982,34.3316407]],[[136.7973528,34.3314504],[136.7973564,34.3314624],[136.797371,34.3314685]],[[136.7991348,34.3319398],[136.7991202,34.3319337],[136.7991129,34.3319217]],[[136.7980101,34.3315803],[136.7980028,34.3316044]],[[136.7985323,34.3318824],[136.7985286,34.3318703],[136.7985103,34.3318612]],[[136.7992553,34.3320818],[136.7993028,34.3320848]],[[136.7992736,34.3320425],[136.7993064,34.3320425],[136.7993137,34.3320485]],[[136.7991457,34.3319005],[136.799164,34.3319217]],[[136.7991677,34.3319972],[136.7991969,34.3319972]],[[136.7976851,34.3314745],[136.7977581,34.3315017]],[[136.7980575,34.3316075],[136.7980466,34.3316165],[136.7980137,34.3316105]],[[136.7972615,34.331402],[136.7972286,34.331399],[136.7970716,34.3313023],[136.7969328,34.331263],[136.7968087,34.3312177],[136.7967429,34.3311664],[136.7967028,34.3311241],[136.7966261,34.3310999],[136.7966188,34.3310939],[136.7966188,34.3310455],[136.796491,34.3309911],[136.796469,34.33097],[136.7964398,34.3309126],[136.7964325,34.3308612],[136.7964654,34.3308552],[136.7964873,34.3308371],[136.7965202,34.330828],[136.7965494,34.330831],[136.7965859,34.3308522],[136.7966407,34.3308914],[136.7966699,34.3309217],[136.7966808,34.3309549],[136.7966735,34.3310576],[136.7966882,34.3310697],[136.7967393,34.3310848],[136.796805,34.3311633],[136.7970424,34.3312449],[136.7971483,34.3312933],[136.797214,34.3313325],[136.7972651,34.3313748],[136.7972724,34.331399]],[[136.798116,34.3316316],[136.7981963,34.3316437]],[[136.7990946,34.3319035],[136.7990727,34.3318824]],[[136.7990946,34.3319035],[136.7991129,34.3319217]],[[136.7976522,34.3314775],[136.7976741,34.3314806],[136.7976814,34.3314745]],[[136.7976449,34.3314775],[136.7975974,34.3314745],[136.7974952,34.3314896],[136.7974806,34.3314896],[136.797466,34.3314775]],[[136.797382,34.3314504],[136.7973966,34.3314473],[136.7974112,34.3314534]],[[136.7982401,34.3316377],[136.7982292,34.3316467],[136.7982036,34.3316437]],[[136.7979699,34.3315652],[136.7980101,34.3315772]],[[136.7991019,34.3318612],[136.7991238,34.3318794]],[[136.7990983,34.3318069],[136.7992224,34.3319005],[136.7992626,34.3320304]],[[136.7990983,34.3318069],[136.7990727,34.331831]],[[136.7990471,34.3318159],[136.7990325,34.3318069],[136.7990325,34.3317887],[136.7990471,34.3317797],[136.7990727,34.3317887]],[[136.797455,34.3314775],[136.7974404,34.3314896],[136.7974002,34.3314836]],[[136.7980575,34.3316044],[136.7980356,34.3315833],[136.798021,34.3315803]],[[136.7985359,34.3318854],[136.7985651,34.3318975],[136.7985724,34.3319217]],[[136.7993064,34.3320848],[136.7993137,34.3320485]],[[136.7972724,34.331405],[136.7973528,34.3314473]],[[136.7985213,34.3318975],[136.7985323,34.3319217],[136.7985469,34.3319277],[136.7985615,34.3319247]],[[136.7984921,34.3318703],[136.7984957,34.3318824],[136.7985103,34.3318884]],[[136.7980685,34.3316044],[136.7980794,34.3315954],[136.7981196,34.3315984]],[[136.7974148,34.3314534],[136.7974331,34.3314564],[136.7974514,34.3314715]],[[136.7976522,34.3314443],[136.7976193,34.3314353],[136.7975755,34.3314353],[136.7974769,34.3314564],[136.7974587,34.3314715]],[[136.7978311,34.3315319],[136.7979151,34.3315621]],[[136.7979151,34.3315621],[136.7979224,34.3315561],[136.7979553,34.3315621]]]}},{"type":"Feature","id":"hyogo_hyogo01","properties":{"course_id":"hyogo_hyogo01","name":"エーデルささゆりガルテンコース","source_url":"http://kurortwalking.com/file/hyogo/hyogo01.pdf","source_page":1,"published_distance_km":1.29,"source_distance_approximate":false,"alignment_method":"landmark_scale_north","status":"approximate_source_trace","verified_for_navigation":false,"linework_length_km":1.195,"control_points":[{"name":"エーデルささゆり","pixel":[145,400],"coordinate":[134.9094545,35.0158314],"source":"https://www.openstreetmap.org/node/5411635370"}],"independent_checks":[],"source_scale":{"pixels":165,"meters":50,"north":"page_up"},"distance_note":"Printed distance is the walking distance. Linework length may differ because out-and-back segments, source-map generalization and small extraction gaps are not a measured GPS track."},"geometry":{"type":"MultiLineString","coordinates":[[[134.9097573,35.0158334],[134.9097823,35.0158272],[134.9098148,35.0158088],[134.9098523,35.0158067],[134.9098673,35.0158129],[134.9099573,35.0158867],[134.9099823,35.015901],[134.9100223,35.0159133],[134.9101347,35.0159195],[134.9102272,35.0159113],[134.9102947,35.0159113],[134.9103821,35.0159195]],[[134.9097498,35.0158559],[134.9097548,35.0158354]],[[134.9116468,35.0157637],[134.9116693,35.0157698],[134.9117218,35.0158088],[134.9117668,35.0158354],[134.9118417,35.0158416],[134.9119792,35.0158662],[134.9120142,35.0158641],[134.9120292,35.0158539],[134.9120267,35.0158354],[134.9119942,35.0158088],[134.9118917,35.0157493],[134.9118167,35.015653],[134.9117817,35.0155812],[134.9117518,35.0154623],[134.9116868,35.0153351],[134.9116518,35.0152408],[134.9116468,35.0152183],[134.9116468,35.0151178],[134.9116368,35.0150891],[134.9116193,35.0150666],[134.9116118,35.0150399],[134.9116118,35.015005],[134.9116293,35.0148861],[134.9116293,35.0148],[134.9116443,35.0147467],[134.9116518,35.0146811],[134.9116468,35.0146114],[134.9116218,35.0144884],[134.9115743,35.0142997],[134.9115418,35.014187],[134.9115193,35.0141337],[134.9114518,35.014025],[134.9113844,35.0139409],[134.9113344,35.0138979],[134.9112819,35.013863],[134.9111794,35.0138282],[134.9111069,35.0137954],[134.9110969,35.0137748],[134.9110969,35.0137297],[134.9110919,35.0137092],[134.9109945,35.0136395],[134.910967,35.0136149],[134.910952,35.0135944],[134.9109345,35.013537],[134.9109345,35.0134981],[134.910947,35.0134714],[134.9109695,35.0134529],[134.9109845,35.0134488],[134.9109945,35.0134406],[134.9110245,35.0132746],[134.9110245,35.0131762],[134.9110095,35.0131474],[134.9109795,35.0131331],[134.910787,35.0131064],[134.9106971,35.0130695],[134.9105496,35.013049],[134.9104796,35.0129957],[134.9103272,35.0128625],[134.9102722,35.0128214],[134.9102497,35.0128153]],[[134.9103846,35.0159174],[134.9103797,35.0158928],[134.9102222,35.0156242],[134.9101622,35.0155607],[134.9100897,35.0154992],[134.9100372,35.0154643],[134.9099973,35.0154479],[134.9099623,35.0154479],[134.9099348,35.0154582],[134.9098998,35.0154869],[134.9098598,35.0155361],[134.9097623,35.0157206],[134.9097523,35.0157985],[134.9097548,35.0158334]],[[134.9116443,35.0157637],[134.9116418,35.0158129],[134.9116518,35.0158764],[134.9116768,35.0159338],[134.9117118,35.0159933],[134.9117168,35.01602]],[[134.9103846,35.0159195],[134.9103971,35.0159277],[134.9104296,35.0159707],[134.9104571,35.0159954],[134.9104821,35.0160036],[134.9104971,35.0160015],[134.9105871,35.015942],[134.9106771,35.0158682],[134.9107096,35.0158313],[134.9108195,35.0157288],[134.9108595,35.0156653],[134.9108945,35.0156222]],[[134.9117143,35.016022],[134.9116868,35.0160179],[134.9116568,35.0160056],[134.9115743,35.0159625],[134.9114293,35.0158744],[134.9112644,35.0157616],[134.9112244,35.0157534],[134.9111794,35.0157596],[134.9111594,35.0157596],[134.9111394,35.0157534],[134.9111044,35.0157227],[134.911042,35.0156509],[134.9108945,35.0156222]],[[134.9102472,35.0128153],[134.9102422,35.0128194],[134.9102422,35.013049],[134.9102622,35.013209],[134.9102822,35.0132951],[134.9102872,35.0133504],[134.9102747,35.0134181],[134.9102197,35.0135042],[134.9102197,35.0135391],[134.9102997,35.01374],[134.9103497,35.0138261],[134.9104496,35.0140414],[134.9104796,35.0140906],[134.9105321,35.0141542],[134.9106171,35.0142731],[134.9106996,35.0144022],[134.910762,35.0145499],[134.910777,35.0146073],[134.910782,35.0146503],[134.9107745,35.0147775],[134.9107545,35.014923],[134.910732,35.0149251],[134.9105896,35.0149005],[134.9105646,35.0149025],[134.9105246,35.0149435],[134.9104896,35.015005],[134.9104671,35.0151199],[134.9104671,35.0151547],[134.9104721,35.0151732],[134.9105196,35.0152511],[134.9105796,35.0153269],[134.9106021,35.0153413],[134.9106646,35.0153577],[134.910722,35.0153803],[134.9107645,35.015411],[134.9108845,35.0155935],[134.9108945,35.0156222]]]}},{"type":"Feature","id":"hyogo_hyogo02","properties":{"course_id":"hyogo_hyogo02","name":"なか・やちよの森ヴァルトコース","source_url":"http://kurortwalking.com/file/hyogo/hyogo02.pdf","source_page":1,"published_distance_km":3.23,"source_distance_approximate":false,"alignment_method":"landmark_scale_north","status":"approximate_source_trace","verified_for_navigation":false,"linework_length_km":1.515,"control_points":[{"name":"なか・やちよの森公園","pixel":[566,1740],"coordinate":[134.9082231,35.027977],"source":"https://www.openstreetmap.org/node/11775147586"}],"independent_checks":[],"source_scale":{"pixels":191,"meters":200,"north":"page_up"},"distance_note":"Printed distance is the walking distance. Linework length may differ because out-and-back segments, source-map generalization and small extraction gaps are not a measured GPS track."},"geometry":{"type":"MultiLineString","coordinates":[[[134.9081645,35.0292718],[134.9081837,35.0296409],[134.9082124,35.0297901],[134.9082124,35.0301041],[134.9081262,35.0303319],[134.9078486,35.0309601],[134.9077433,35.0311406],[134.9076475,35.0312349],[134.9074752,35.0313055],[134.907322,35.0314233],[134.9072167,35.0315961],[134.9071976,35.0319416],[134.907255,35.0322949],[134.907255,35.0324441],[134.9072263,35.0325384],[134.9069678,35.0329545],[134.9068721,35.0332058],[134.9068529,35.0333707],[134.9069295,35.0336927],[134.9069295,35.0338105],[134.9068146,35.0343366],[134.9068146,35.0348234],[134.9067859,35.0349176],[134.9066232,35.0351924],[134.9065849,35.0353102],[134.9065849,35.0353888],[134.9066423,35.0354987],[134.9066615,35.0356165],[134.9066136,35.0357186],[134.9064317,35.035907],[134.9062785,35.0361818],[134.9063551,35.0367237],[134.9063647,35.0374696],[134.9064125,35.0376031],[134.9065657,35.0377523],[134.9065945,35.0378701],[134.906671,35.0380272],[134.9070253,35.0383962],[134.9071593,35.0387967],[134.9073029,35.0391029],[134.9075901,35.0395112],[134.907705,35.0397154],[134.908088,35.0401787],[134.9082603,35.0403122],[134.9084326,35.0404143],[134.9087964,35.040532],[134.9090549,35.0405792],[134.9092081,35.0406577],[134.9093804,35.0407598],[134.9094761,35.0408383],[134.9097538,35.041121],[134.9098687,35.0411288],[134.9099357,35.0411131]]]}},{"type":"Feature","id":"okayama_okayama02","properties":{"course_id":"okayama_okayama02","name":"満奇洞コース","source_url":"http://kurortwalking.com/file/okayama/okayama02.pdf","source_page":1,"published_distance_km":1.51,"source_distance_approximate":false,"alignment_method":"landmark_scale_north","status":"approximate_source_trace","verified_for_navigation":false,"linework_length_km":0.871,"control_points":[{"name":"満奇洞入口","pixel":[436,421],"coordinate":[133.5835859,34.9718514],"source":"https://www.openstreetmap.org/node/8920889509"}],"independent_checks":[],"source_scale":{"pixels":164,"meters":50,"north":"page_up"},"distance_note":"Printed distance is the walking distance. Linework length may differ because out-and-back segments, source-map generalization and small extraction gaps are not a measured GPS track."},"geometry":{"type":"MultiLineString","coordinates":[[[133.5836781,34.9715943],[133.5836857,34.9716356],[133.5836807,34.9716521],[133.5836656,34.9716624],[133.5836102,34.9716686],[133.5835247,34.9716666],[133.5834794,34.9716604],[133.5834392,34.9716645],[133.5833939,34.9716789],[133.5833788,34.9716893],[133.5833436,34.9717471]],[[133.5836807,34.9715922],[133.5837058,34.9715964],[133.583731,34.9716129],[133.5837637,34.9716583],[133.5839548,34.971842],[133.5841309,34.9720588],[133.5842114,34.9721104],[133.5842667,34.9721579],[133.5842743,34.9721765],[133.5842692,34.9721847],[133.5842617,34.9721868],[133.5842189,34.9721806],[133.5841485,34.9721496],[133.5841007,34.9721372],[133.5840781,34.9721455],[133.5840756,34.9721661],[133.5840982,34.9722033],[133.5841686,34.9722632],[133.5842064,34.9723127],[133.5843271,34.972513],[133.5843321,34.9725357]],[[133.5843321,34.9725377],[133.5843799,34.9725728]],[[133.5836781,34.9715922],[133.583663,34.9715799],[133.5836228,34.9715633],[133.5834668,34.9715509],[133.5833989,34.9715406],[133.5833612,34.9715262],[133.5833511,34.9715117],[133.5833511,34.9714993],[133.5833612,34.9714787],[133.583404,34.9714395],[133.5835423,34.9713817],[133.5836027,34.9713486],[133.5836706,34.9712991],[133.5836832,34.9712805],[133.5836857,34.9712661],[133.5836756,34.9712433],[133.5836454,34.9712351],[133.5835976,34.9712372],[133.5835197,34.9712661],[133.583497,34.971264],[133.5834643,34.9712475],[133.5834341,34.9712227],[133.583404,34.9711711],[133.5833914,34.9711277],[133.5833838,34.971072],[133.5833687,34.9708635],[133.5833511,34.9707479],[133.5833411,34.9706137],[133.5833285,34.9705476],[133.5833109,34.970496],[133.5833059,34.9704485],[133.5833084,34.9704031],[133.5833184,34.970366],[133.5833511,34.9703082]],[[133.5843296,34.9725377],[133.5842919,34.9725336],[133.5841586,34.9724985],[133.5838215,34.9724737],[133.5837863,34.9724655],[133.5837209,34.9724325],[133.5836354,34.9723664],[133.5835398,34.9723024],[133.5834668,34.9722281],[133.5833134,34.9721455],[133.5832254,34.9721145],[133.5830493,34.972065],[133.5830015,34.9720443],[133.5829059,34.9719927],[133.582838,34.971968],[133.5827248,34.9719432],[133.5825664,34.9719205],[133.5824934,34.9719205],[133.5824833,34.9719143],[133.5824884,34.9718916],[133.5825462,34.9718503],[133.5827751,34.9717512],[133.582911,34.9716996],[133.5829411,34.9716955],[133.5830141,34.9716975],[133.5833411,34.9717471]],[[133.5833519,34.9703151],[133.5834088,34.9702136],[133.5834556,34.9701258],[133.5834656,34.9699832],[133.5834823,34.9699036],[133.5835391,34.9698323],[133.5836293,34.9697884],[133.5837564,34.9697417],[133.5838299,34.9697088],[133.5838399,34.9696677],[133.5838098,34.9695881],[133.5837764,34.9694948],[133.583743,34.9694098],[133.5838299,34.9692836],[133.5839368,34.9691519],[133.5839669,34.9691162]],[[133.5833319,34.9717417],[133.5834221,34.971791],[133.5835157,34.9718212],[133.5835859,34.9718514]]]}},{"type":"Feature","id":"nagasaki_saikai_nagasaki_saikai_isanoura","properties":{"course_id":"nagasaki_saikai_nagasaki_saikai_isanoura","name":"伊佐ノ浦公園コース","source_url":"http://kurortwalking.com/file/nagasaki-saikai/nagasaki_saikai_isanoura.pdf","source_page":1,"published_distance_km":2.1,"source_distance_approximate":false,"alignment_method":"landmark_scale_north","status":"approximate_source_trace","verified_for_navigation":false,"linework_length_km":1.86,"control_points":[{"name":"伊佐ノ浦ダム","pixel":[662,898],"coordinate":[129.6855455,33.013924],"source":"https://www.openstreetmap.org/way/517864371"}],"independent_checks":[],"source_scale":{"pixels":153,"meters":100,"north":"page_up"},"distance_note":"Printed distance is the walking distance. Linework length may differ because out-and-back segments, source-map generalization and small extraction gaps are not a measured GPS track."},"geometry":{"type":"MultiLineString","coordinates":[[[129.6880634,33.0133805],[129.6879527,33.0133584],[129.6878315,33.0133894],[129.6878156,33.0134071],[129.6878156,33.0134779],[129.6877735,33.0136284],[129.6877418,33.0136638],[129.6876997,33.0136859],[129.6876048,33.0137302],[129.6871198,33.0139028],[129.6869933,33.0139471],[129.6869248,33.0139603],[129.6868773,33.0139603],[129.6868563,33.0139471],[129.6868563,33.0138807],[129.6868141,33.0138452],[129.6867245,33.0138098],[129.6866349,33.0137966],[129.6865927,33.0137789],[129.6864873,33.013708],[129.6863239,33.0136284],[129.6862553,33.0135841],[129.6861763,33.0135753],[129.6861288,33.013593],[129.6856755,33.0138364],[129.6849639,33.0142259],[129.6849323,33.0142525]],[[129.6842786,33.0145402],[129.6840941,33.0145711],[129.6839729,33.0145711],[129.6837357,33.014518],[129.6836408,33.0144826],[129.6835881,33.0144472],[129.6835881,33.0144118],[129.6836671,33.014341],[129.68382,33.0141241],[129.6839254,33.0140489],[129.684015,33.0140223],[129.6843366,33.0140489],[129.6843946,33.0140489],[129.6844315,33.0140311],[129.6844315,33.0140046],[129.6844157,33.0139869],[129.6843102,33.0139294],[129.6838042,33.0137877],[129.6837515,33.013739],[129.6837462,33.0136815],[129.6837726,33.0136372],[129.6838042,33.0136107],[129.6838622,33.0135841],[129.6841363,33.0135354],[129.6842734,33.0134779],[129.6843366,33.0134248],[129.6843946,33.0133584],[129.6845843,33.0130618],[129.6845843,33.0130264],[129.684442,33.0128317],[129.684247,33.0126236],[129.6842154,33.0125749],[129.6842101,33.0124908],[129.6842786,33.0122961],[129.6842997,33.01215],[129.6843788,33.0119287],[129.6845369,33.0117163],[129.6846845,33.0116322],[129.6849902,33.0115082],[129.6850588,33.011464]],[[129.6849323,33.0142613],[129.6850904,33.0144118],[129.6851484,33.0145048],[129.6851536,33.0145446],[129.6851431,33.0145844],[129.6850851,33.0146464],[129.6847636,33.0147792],[129.6847056,33.0147925],[129.6843946,33.01458]],[[129.6880318,33.0138541],[129.6880159,33.0138408],[129.6880159,33.0137966],[129.6880529,33.0136461],[129.6880634,33.0136195],[129.6881319,33.0135753]],[[129.6881794,33.0134558],[129.6882057,33.0134823]],[[129.6881794,33.0134558],[129.6880687,33.0133849]],[[129.6882057,33.0134292],[129.6881635,33.0133849],[129.6881003,33.0133495]],[[129.6881003,33.0133495],[129.6880687,33.0133805]],[[129.6881003,33.0133495],[129.6880265,33.0133185],[129.6878947,33.0133141],[129.6878209,33.0132522],[129.6877735,33.0132433],[129.6877049,33.0132699],[129.6875046,33.0134558],[129.6873887,33.0134867],[129.6872253,33.0134912],[129.6870987,33.0134646],[129.686988,33.0134159],[129.6869248,33.0133717],[129.6868299,33.0132831],[129.6868299,33.0132654],[129.6868457,33.0132477],[129.6869406,33.013199],[129.6869722,33.013199],[129.6870935,33.0132433]],[[129.6881372,33.0135708],[129.688211,33.0135266],[129.688211,33.0134867]],[[129.6882426,33.0134558],[129.688211,33.0134336]],[[129.688037,33.0138541],[129.6880687,33.013832],[129.6881108,33.0136594],[129.6881635,33.0136107]],[[129.6882479,33.0134602],[129.6882795,33.0135],[129.6882795,33.0135443],[129.6882479,33.0135708],[129.6881688,33.0136062]],[[129.6850588,33.011464],[129.6850904,33.0114861],[129.6852274,33.0116499],[129.6852274,33.0116764],[129.6852011,33.0117074],[129.6852011,33.0117694],[129.6852222,33.0118712],[129.6852222,33.0119287],[129.6852433,33.0119995],[129.6852169,33.0120128],[129.6850746,33.0120394],[129.684869,33.0120615],[129.6848268,33.0120792],[129.6847847,33.0121146],[129.6847372,33.0122076],[129.6847478,33.012389],[129.6847847,33.012513],[129.6848163,33.0125926],[129.6848901,33.0127254],[129.6849902,33.0128671],[129.6850324,33.0128848],[129.6851115,33.0128936],[129.6852064,33.0129777],[129.6852433,33.0129821],[129.6852485,33.012929],[129.6851958,33.0128671],[129.6851958,33.0128317],[129.6852116,33.0128095],[129.6852696,33.0127962],[129.6853645,33.0127962],[129.6854857,33.0127077],[129.6855859,33.0126856],[129.6856439,33.01269],[129.685686,33.0127122],[129.68586,33.0128494],[129.6858758,33.0128936],[129.6858495,33.0129556],[129.6858547,33.0130087],[129.6859601,33.0130087],[129.6860445,33.0129954],[129.686113,33.0129999],[129.6862132,33.0130663],[129.6864293,33.0131371],[129.6868721,33.0131238],[129.6870355,33.013168],[129.6871198,33.0132079]],[[129.6871409,33.0132477],[129.6871146,33.0132522],[129.6870987,33.0132433]]]}},{"type":"Feature","id":"nagasaki_saikai_nagasaki_saikai_isanoura_optional","properties":{"course_id":"nagasaki_saikai_nagasaki_saikai_isanoura_optional","name":"伊佐ノ浦公園 オプションコース","source_url":"http://kurortwalking.com/file/nagasaki-saikai/nagasaki_saikai_isanoura.pdf","source_page":1,"published_distance_km":2.2,"source_distance_approximate":false,"alignment_method":"landmark_scale_north","status":"approximate_source_trace","verified_for_navigation":false,"linework_length_km":1.313,"control_points":[{"name":"伊佐ノ浦ダム","pixel":[662,898],"coordinate":[129.6855455,33.013924],"source":"https://www.openstreetmap.org/way/517864371"}],"independent_checks":[],"source_scale":{"pixels":153,"meters":100,"north":"page_up"},"distance_note":"Printed distance is the walking distance. Linework length may differ because out-and-back segments, source-map generalization and small extraction gaps are not a measured GPS track."},"geometry":{"type":"MultiLineString","coordinates":[[[129.6845211,33.0180634],[129.684695,33.0178509],[129.6848743,33.0178598],[129.6850008,33.0178819],[129.6851062,33.01782],[129.6851062,33.0177801],[129.6850535,33.0176252],[129.6850535,33.01755],[129.6850957,33.0174659],[129.68518,33.0173685],[129.6852011,33.0172578],[129.6851167,33.017041],[129.6849902,33.0168019],[129.684985,33.0166692],[129.6852485,33.0164965],[129.6852485,33.01647],[129.6852274,33.0164478],[129.6851906,33.0164478],[129.6848057,33.016532],[129.6846107,33.0165629],[129.6845316,33.0165895],[129.6844736,33.0166382],[129.6844368,33.0166957],[129.6844051,33.0167975],[129.6843999,33.0168993],[129.6843524,33.0169259],[129.684247,33.0169613],[129.6841205,33.0169923],[129.6840783,33.0170675],[129.6840309,33.0171074],[129.6839834,33.0171295],[129.6838938,33.0171516],[129.6838464,33.0171516],[129.683762,33.0171074],[129.6836619,33.0171074],[129.6834827,33.0171693],[129.6833087,33.0172623],[129.6832138,33.0172711],[129.6831348,33.0172446],[129.6830768,33.0172092],[129.683003,33.0171428],[129.6829344,33.0170498],[129.6829292,33.0170011],[129.6829872,33.0168949],[129.6829872,33.0168374],[129.682945,33.0168152],[129.6827236,33.0167798],[129.6826656,33.0167356],[129.6826182,33.0166692],[129.682576,33.0165585],[129.682576,33.0164611],[129.6826024,33.0164169],[129.6826814,33.0163593],[129.6827025,33.0163106],[129.6826867,33.0162664],[129.6826392,33.0162265],[129.6825655,33.0161911],[129.6825127,33.0161823],[129.6823599,33.016169],[129.6820436,33.0161646],[129.6818907,33.0161336],[129.6817431,33.0161159],[129.68139,33.0161513],[129.6813636,33.0161336],[129.6813478,33.016107],[129.6813425,33.0160583],[129.6813741,33.0160052],[129.6815007,33.0158636],[129.6815481,33.0158238],[129.681838,33.0156688],[129.681954,33.0155803],[129.6819856,33.0155361],[129.6820014,33.0154785],[129.6819909,33.0154121],[129.6819645,33.0153502],[129.6819751,33.015297],[129.6820752,33.0152749],[129.6821806,33.0151731],[129.6823124,33.0150757],[129.6824126,33.0150492],[129.6825444,33.0150315],[129.6827921,33.0150226],[129.6828448,33.0150315],[129.6832085,33.0151598],[129.6833087,33.0151864],[129.6833667,33.0151864],[129.6834089,33.0151687],[129.6834616,33.01512],[129.6836144,33.0148898],[129.6836513,33.0148589],[129.6837146,33.0148544],[129.6837831,33.0148898],[129.6839413,33.0150182],[129.6840625,33.015089],[129.6842312,33.0151421],[129.6843313,33.0151554],[129.6843682,33.0151421],[129.6843946,33.01512],[129.6844842,33.0149872],[129.6846581,33.0148146]],[[129.6838441,33.0171528],[129.6839911,33.0176115],[129.6842642,33.0178233],[129.6844182,33.0180056],[129.6845162,33.0180644]]]}},{"type":"Feature","id":"oita_oita01","properties":{"course_id":"oita_oita01","name":"大杵社コース","source_url":"http://kurortwalking.com/file/oita/oita01.pdf","source_page":1,"published_distance_km":3,"source_distance_approximate":true,"alignment_method":"two_landmarks","status":"approximate_source_trace","verified_for_navigation":false,"linework_length_km":2.972,"control_points":[{"name":"クアージュゆふいん","pixel":[935,650],"coordinate":[131.360006,33.260437],"source":"https://www.visit-oita.jp/spots/detail/4424"},{"name":"大杵社","pixel":[823,1239],"coordinate":[131.357858,33.252371],"source":"https://www.visit-oita.jp/spots/detail/4368"}],"independent_checks":[{"name":"由布院駅","pixel":[665,530],"coordinate":[131.3551264,33.2626128],"source":"https://www.openstreetmap.org/way/411437588","residual_m":64.8}],"source_scale":null,"distance_note":"Printed distance is the walking distance. Linework length may differ because out-and-back segments, source-map generalization and small extraction gaps are not a measured GPS track."},"geometry":{"type":"MultiLineString","coordinates":[[[131.3599845,33.260741],[131.3603833,33.2603994],[131.3607526,33.2597139],[131.361125,33.2591111],[131.3605055,33.2588378],[131.3598537,33.2585793],[131.3595817,33.258352],[131.3594078,33.2581084],[131.3593455,33.2577653],[131.3593448,33.2573102],[131.3593739,33.2567716],[131.3595686,33.2562562],[131.359848,33.2558075],[131.3599948,33.2553347],[131.3600573,33.254809],[131.3602618,33.2545553],[131.3607156,33.2543641],[131.3606682,33.2539792],[131.3607863,33.2536175],[131.3603328,33.2533813],[131.3598958,33.2531446],[131.3595478,33.2530848],[131.35904,33.2531534],[131.3585635,33.2531798],[131.358138,33.2532462],[131.3577427,33.2532429],[131.35765,33.2529695],[131.3577178,33.2525816],[131.3576108,33.2523637],[131.3577993,33.2521243],[131.3580408,33.25198],[131.3584818,33.2518856],[131.3583766,33.2521504],[131.3583386,33.2524548],[131.3581835,33.2527072],[131.358144,33.2529702],[131.3581205,33.2532191],[131.3577427,33.2532429],[131.3572025,33.2533261],[131.3567897,33.2532956],[131.356598,33.2534524],[131.3564912,33.2536759],[131.3562867,33.2539295],[131.3560201,33.2542814],[131.3559333,33.2546008],[131.3557489,33.2549505],[131.3554427,33.2551241],[131.3553528,33.2553609],[131.3555425,33.2555903],[131.3551905,33.2558616],[131.3555304,33.2561423],[131.3558847,33.2563673],[131.3563149,33.2564249],[131.3567133,33.2565109],[131.3570835,33.2567218],[131.3573231,33.2569637],[131.3575925,33.2571221],[131.3573397,33.2574046],[131.3571517,33.2576578],[131.3572756,33.2578889],[131.3575173,33.2581859],[131.3577431,33.2584972],[131.3579709,33.2588635],[131.358222,33.2594085],[131.3584221,33.2599135],[131.3586387,33.260418],[131.3589159,33.260783],[131.359208,33.2611063],[131.3594779,33.2612784],[131.3597508,33.2610919],[131.3599845,33.260741]]]}}]}